OBJECT_NAME,OBJECT_ID,EPOCH,MEAN_MOTION,ECCENTRICITY,INCLINATION,RA_OF_ASC_NODE,ARG_OF_PERICENTER,MEAN_ANOMALY,EPHEMERIS_TYPE,CLASSIFICATION_TYPE,NORAD_CAT_ID,ELEMENT_SET_NO,REV_AT_EPOCH,BSTAR,MEAN_MOTION_DOT,MEAN_MOTION_DDOT
STARLINK-37122,2026-077S,2026-06-11T14:37:07.769280,15.33451382,.0001781,97.2860,33.9708,85.9849,274.1597,0,U,68678,999,955,.51273E-3,.16518E-3,0
STARLINK-37310,2026-077T,2026-06-11T14:33:12.955680,15.33446569,.0001936,97.2862,33.9732,90.5068,269.6397,0,U,68679,999,955,.79736E-3,.25757E-3,0
STARLINK-37306,2026-077U,2026-06-11T14:21:28.266048,15.33449076,.0002055,97.2857,33.9851,80.5772,279.5703,0,U,68680,999,955,.86932E-3,.28099E-3,0
STARLINK-37307,2026-077V,2026-06-11T14:25:23.189376,15.33448008,.0002035,97.2862,33.9818,77.4906,282.6564,0,U,68681,999,955,.89711E-3,.29002E-3,0
STARLINK-37300,2026-077W,2026-06-11T15:39:46.444896,15.33452238,.00018957,97.2858,34.0652,94.8681,265.2778,0,U,68682,999,956,.48735627E-3,.15695E-3,0
STARLINK-37304,2026-077X,2026-06-11T14:09:43.261056,15.33449598,.0001777,97.2875,33.9957,104.1449,255.9991,0,U,68683,999,955,.39963E-3,.1285E-3,0
STARLINK-37287,2026-077Y,2026-06-11T14:13:38.277696,15.33452686,.0002016,97.2865,33.9928,87.8262,272.3212,0,U,68684,999,955,.77037E-3,.24884E-3,0
STARLINK-36278,2026-077Z,2026-06-11T15:39:41.199552,15.75214833,.00012808,97.2860,36.2034,29.4688,330.6649,0,U,68685,999,970,.97651146E-3,.148237E-2,0
STARLINK-37213,2026-077AA,2026-06-11T14:17:35.176128,15.33404657,.0002165,97.2874,33.9874,81.8781,278.2707,0,U,68686,999,955,.19852E-2,.64484E-3,0
STARLINK-37358,2026-081A,2026-06-11T16:03:43.861824,15.34412235,.00017337,53.1582,317.4246,146.3970,213.7143,0,U,68699,999,913,.72836077E-3,.24322E-3,0
STARLINK-37334,2026-081B,2026-06-11T22:15:53.171136,15.34417083,.00009803,53.1591,316.1914,84.9666,275.1448,0,U,68700,999,917,.81968318E-3,.27434E-3,0
STARLINK-36955,2026-081C,2026-06-11T15:57:40.262976,15.34391754,.00010263,53.1593,317.3945,77.6054,282.5064,0,U,68701,999,913,.53307981E-3,.17673E-3,0
STARLINK-36275,2026-081D,2026-06-11T15:54:38.857536,15.34412244,.00015946,53.1593,317.3957,128.6603,231.4542,0,U,68702,999,913,.78563542E-3,.26271E-3,0
STARLINK-36271,2026-081E,2026-06-11T17:25:24.900960,15.34394080,.00010234,53.1582,317.0687,105.0731,255.0385,0,U,68703,999,914,.80209107E-3,.26816E-3,0
STARLINK-37356,2026-081F,2026-06-11T17:22:22.719648,15.34403494,.00011052,53.1594,317.0515,102.7873,257.3253,0,U,68704,999,914,.62422523E-3,.20775E-3,0
STARLINK-35369,2026-081G,2026-06-11T17:25:38.302464,15.35446882,.0000967,53.1588,317.0657,111.6401,248.4705,0,U,68705,999,914,.69514518E-3,.23981E-3,0
STARLINK-37319,2026-081H,2026-06-11T22:00:01.999584,15.34368799,.00010025,53.1583,316.0756,87.0915,305.1973,0,U,68706,999,583,.1476114E-2,.49778E-3,0
STARLINK-37112,2026-081J,2026-06-11T17:16:19.702272,15.34374486,.00004967,53.1582,317.0328,97.1156,262.9903,0,U,68707,999,914,.58513207E-3,.19429E-3,0
STARLINK-37340,2026-081K,2026-06-11T21:54:40.357440,15.34419293,.00008799,53.1585,316.0991,88.2179,271.8924,0,U,68708,999,917,.86912716E-3,.29121E-3,0
STARLINK-37303,2026-081L,2026-06-11T17:07:14.094048,15.34384296,.00009779,53.1595,316.9884,87.2895,272.8219,0,U,68709,999,914,.47882828E-3,.15828E-3,0
STARLINK-36859,2026-081M,2026-06-11T15:30:24.513120,15.34407340,.00011914,53.1589,317.2753,74.4753,285.6381,0,U,68710,999,913,.68838217E-3,.22958E-3,0
STARLINK-37320,2026-081N,2026-06-11T22:00:01.999584,15.35372016,.00008414,53.1588,316.0067,98.6052,320.0236,0,U,68711,999,570,.14880985E-2,.51838E-3,0
STARLINK-37318,2026-081P,2026-06-11T21:39:30.523968,15.34583024,.00017045,53.1603,316.0335,110.2623,249.8563,0,U,68712,999,917,-.84153172E-2,-.276154E-2,0
STARLINK-37305,2026-081Q,2026-06-11T16:55:06.782304,15.34405354,.00009476,53.1598,316.9256,95.6513,264.4597,0,U,68713,999,914,.70596221E-3,.23555E-3,0
STARLINK-37225,2026-081R,2026-06-11T16:52:04.878336,15.34406192,.00011199,53.1603,316.9186,127.8122,232.2982,0,U,68714,999,914,.7084485E-3,.2364E-3,0
STARLINK-37322,2026-081S,2026-06-11T16:49:03.076320,15.34408200,.00009221,53.1603,316.8969,124.4652,235.6438,0,U,68715,999,914,.10388354E-2,.34895E-3,0
STARLINK-36337,2026-081T,2026-06-11T18:19:49.778112,15.34408641,.00010736,53.1604,316.5975,85.8714,274.2411,0,U,68716,999,915,-.90560703E-3,-.30857E-3,0
STARLINK-36685,2026-081U,2026-06-11T21:24:17.125632,15.35173235,.00006164,53.1603,315.9612,67.7093,292.3975,0,U,68717,999,917,.10973156E-2,.37811E-3,0
STARLINK-36684,2026-081V,2026-06-11T16:39:57.748032,15.34400169,.000119,53.1610,316.8570,82.4155,277.6983,0,U,68718,999,914,.49543196E-3,.16399E-3,0
STARLINK-36686,2026-081W,2026-06-11T16:33:54.339264,15.34402763,.0001333,53.1612,316.8314,84.2226,275.8928,0,U,68719,999,914,.7572339E-3,.25297E-3,0
STARLINK-36681,2026-081X,2026-06-11T16:24:48.850272,15.34405263,.0001251,53.1615,316.7954,102.9820,257.1322,0,U,68720,999,914,.78008979E-3,.26076E-3,0
STARLINK-36680,2026-081Y,2026-06-11T16:30:52.249536,15.34404074,.0000802,53.1610,316.8168,102.8348,257.2744,0,U,68721,999,914,.80908675E-3,.27062E-3,0
STARLINK-37271,2026-081Z,2026-06-11T16:27:50.381856,15.34410550,.00025022,53.1617,316.7995,86.4778,273.6511,0,U,68722,999,914,.74137348E-3,.24764E-3,0
STARLINK-37273,2026-081AA,2026-06-11T16:36:55.327392,15.34430274,.00014819,53.1608,316.8505,100.0501,260.0669,0,U,68723,999,914,.1032599E-2,.34707E-3,0
STARLINK-37274,2026-081AB,2026-06-11T22:36:57.155616,15.34621524,.00020117,53.1614,315.5584,55.4126,304.7066,0,U,68724,999,918,-.95933913E-2,-.31362E-2,0
STARLINK-37275,2026-081AC,2026-06-11T17:54:15.303744,15.35406448,.00011134,53.1614,316.4851,77.7038,282.4090,0,U,68725,999,915,.79426408E-3,.27431E-3,0
STARLINK-37272,2026-081AD,2026-06-11T17:52:32.654496,15.34403519,.00001487,53.1598,316.4573,76.0292,284.0727,0,U,68726,999,915,.9088252E-3,.30458E-3,0
STARLINK-37270,2026-081AE,2026-06-11T17:46:29.265600,15.34399372,.00003282,53.1591,316.4443,101.6310,258.4729,0,U,68727,999,915,.72764228E-3,.24288E-3,0
STARLINK-37242,2026-082A,2026-06-11T14:34:05.989728,15.33443591,.0001996,97.2853,26.1913,88.7110,271.4362,0,U,68728,999,884,.65365E-3,.21086E-3,0
STARLINK-37264,2026-082B,2026-06-11T21:17:22.452288,15.33453520,.00015363,97.2878,26.4215,99.6036,260.5380,0,U,68729,999,888,.66244748E-3,.21378E-3,0
STARLINK-37230,2026-082C,2026-06-11T14:18:26.324064,15.33443159,.0001776,97.2852,26.2100,99.5517,260.5927,0,U,68730,999,884,.82657E-3,.26703E-3,0
STARLINK-37202,2026-082D,2026-06-11T15:05:25.106784,15.33446657,.00017036,97.2863,26.1607,100.7240,259.4195,0,U,68731,999,884,.50467992E-3,.16254E-3,0
STARLINK-37167,2026-082E,2026-06-11T15:09:19.796832,15.33413875,.00018668,97.2854,26.1571,110.6611,249.4832,0,U,68732,999,884,.45834829E-3,.14737E-3,0
STARLINK-37278,2026-082F,2026-06-11T13:39:16.871328,15.33447104,.0001104,97.2859,26.2434,99.0668,261.0699,0,U,68733,999,884,.37206E-3,.11956E-3,0
STARLINK-37349,2026-082G,2026-06-11T13:58:52.042656,15.33466564,.0001741,97.2855,26.2259,113.3464,246.7962,0,U,68734,999,884,.328E-3,.10536E-3,0
STARLINK-37339,2026-082H,2026-06-11T13:54:56.553408,15.33443236,.0001572,97.2874,26.2290,94.6755,265.4667,0,U,68735,999,884,.13992E-2,.45366E-3,0
STARLINK-37327,2026-082J,2026-06-11T14:53:40.463808,15.33453669,.00018196,97.2856,26.1720,95.1790,264.9661,0,U,68736,999,884,.49489726E-3,.15941E-3,0
STARLINK-37348,2026-082K,2026-06-11T14:41:55.629024,15.33447483,.00019715,97.2855,26.1852,100.8312,259.3153,0,U,68737,999,884,.67130411E-3,.21662E-3,0
STARLINK-37331,2026-082L,2026-06-11T14:45:50.345856,15.33449425,.000092,97.2855,26.1790,92.4783,267.6565,0,U,68738,999,884,.23425508E-3,.7496E-4,0
STARLINK-37338,2026-082M,2026-06-11T14:37:59.744064,15.33453232,.0002115,97.2840,26.1879,99.3828,260.7654,0,U,68739,999,884,.34271E-3,.11008E-3,0
STARLINK-37314,2026-082N,2026-06-11T14:26:16.144800,15.33443890,.0001838,97.2854,26.1974,89.9400,270.2054,0,U,68740,999,884,.62538E-3,.20168E-3,0
STARLINK-36314,2026-082P,2026-06-11T14:57:35.168544,15.33454031,.00026504,97.2863,26.1696,114.7421,245.4097,0,U,68741,999,884,.43151154E-3,.13886E-3,0
STARLINK-37351,2026-082Q,2026-06-11T14:30:10.388160,15.33471652,.0002115,97.2860,26.1897,100.2483,259.8999,0,U,68742,999,884,.84891E-3,.27455E-3,0
STARLINK-37354,2026-082R,2026-06-11T13:47:06.735264,15.33445906,.0001121,97.2855,26.2365,94.3492,265.7879,0,U,68743,999,884,.39626E-3,.1274E-3,0
STARLINK-37344,2026-082S,2026-06-11T14:14:32.989632,15.33414023,.0001335,97.2854,26.2089,99.0489,261.0905,0,U,68744,999,884,.94365E-3,.30483E-3,0
STARLINK-37267,2026-082T,2026-06-11T15:17:10.000320,15.33448592,.00013285,97.2853,26.3024,86.9896,273.1498,0,U,68745,999,885,.6053868E-3,.19522E-3,0
STARLINK-37347,2026-082U,2026-06-11T14:22:21.095328,15.33440901,.0001772,97.2867,26.2001,76.8709,283.2731,0,U,68746,999,884,.18148E-3,.5788E-4,0
STARLINK-37268,2026-082V,2026-06-11T15:24:59.577408,15.33410814,.00014951,97.2855,26.2949,68.5589,291.5813,0,U,68747,999,885,.54848687E-3,.17655E-3,0
STARLINK-37325,2026-082W,2026-06-11T14:49:45.392736,15.33446834,.00014205,97.2858,26.1766,102.0877,258.0525,0,U,68748,999,884,.36138161E-3,.1161E-3,0
STARLINK-37324,2026-082X,2026-06-11T14:02:48.231744,15.33469429,.0002444,97.2856,26.2230,82.4977,277.6543,0,U,68749,999,884,.104E-2,.33678E-3,0
STARLINK-37350,2026-082Y,2026-06-11T15:11:07.503936,15.33441201,.0001759,97.2861,25.2399,96.6304,263.5139,0,U,68750,999,878,.52285143E-3,.16841E-3,0
STARLINK-37277,2026-082Z,2026-06-11T14:10:36.244992,15.33435903,.0001562,97.2862,26.2135,87.6945,272.4476,0,U,68751,999,884,.12391E-3,.3926E-4,0
STARLINK-37342,2026-082AA,2026-06-11T14:06:41.066784,15.33415779,.0001591,97.2858,26.2162,92.0479,268.0945,0,U,68752,999,884,.63551E-3,.20479E-3,0
STARLINK-37168,2026-086A,2026-06-11T22:00:01.999584,15.45161911,.00012866,97.2850,199.8496,89.5662,316.8194,0,U,68766,999,584,-.42707832E-1,-.1823558E-1,0
